[{"address":"122 E 37TH ST","city":"New York","state":"NY","zip":"10016","latitude":"40.7483929","longitude":"-73.9787906","details":"FRONT BASEMENT ONLY","accessibility":false},{"address":"30 E 35TH ST","city":"New York","state":"NY","zip":"10016","latitude":"40.7496221","longitude":"-73.9855348","details":"All meetings are Round Robin format except Thursday.","accessibility":false},{"address":"350 E 56TH ST","city":"New York","state":"NY","zip":"10022","latitude":"40.757654","longitude":"-73.963834","details":"3rd Floor library","accessibility":false},{"address":"619 LEXINGTON AVE","city":"New York","state":"NY","zip":"10022","latitude":"40.6894374","longitude":"-73.9367705","details":"T -7:30am last Mon., Anniv -12:30 Last Thursday","accessibility":false},{"address":"122 E 37TH ST","city":"New York","state":"NY","zip":"10016","latitude":"40.7483929","longitude":"-73.9787906","details":"Wed.6:15 BB=OD Big Book Study","accessibility":false},{"address":"28 E 35TH ST","city":"New York","state":"NY","zip":"10016","latitude":"40.7496065","longitude":"-73.9854965","details":"T Last Wednesday","accessibility":false},{"address":"350 E 56TH ST","city":"New York","state":"NY","zip":"10022","latitude":"40.757654","longitude":"-73.963834","details":"Beginners Meeting 2nd & 4th Sunday","accessibility":false},{"address":"283 LEXINGTON AVE","city":"New York","state":"NY","zip":"10016","latitude":"40.7479969","longitude":"-73.9783809","details":"T=Last Tuesday, Fri=Anniv. 2nd to Last Friday.","accessibility":false},{"address":"122 E 37TH ST","city":"New York","state":"NY","zip":"10016","latitude":"40.7483929","longitude":"-73.9787906","details":"Portugese speaking meeting.","accessibility":false},{"address":"619 LEXINGTON AVE","city":"New York","state":"NY","zip":"10022","latitude":"40.7588016","longitude":"-73.9704542","details":"All meetings are non-smoking.","accessibility":true},{"address":"141 E 43RD ST","city":"New York","state":"NY","zip":"10017","latitude":"40.7518754","longitude":"-73.9747248","details":"Enter main Church entrance, turn left, meeting is downstairs.","accessibility":true},{"address":"122 E 37TH ST","city":"New York","state":"NY","zip":"10016","latitude":"40.7483929","longitude":"-73.9787906","details":"","accessibility":false},{"address":"122 E 37TH ST","city":"New York","state":"NY","zip":"10016","latitude":"40.7483929","longitude":"-73.9787906","details":"11th S Meditation","accessibility":false},{"address":"141 E 43RD ST","city":"New York","state":"NY","zip":"10017","latitude":"40.7518754","longitude":"-73.9747248","details":"","accessibility":false},{"address":"209 MADISON AVE","city":"New York","state":"NY","zip":"10016","latitude":"40.7486487","longitude":"-73.9821254","details":"No Meetings on Legal Holidays.","accessibility":false},{"address":"122 E 37TH ST","city":"New York","state":"NY","zip":"10016","latitude":"40.7483929","longitude":"-73.9787906","details":"Sun.7:30am,Tue.6:15pm B & Wed.6:15pm C =Meditation Wkshp.,","accessibility":false},{"address":"619 LEXINGTON AVE","city":"New York","state":"NY","zip":"10022","latitude":"40.7588016","longitude":"-73.9704542","details":"Living Sober","accessibility":true},{"address":"240 E 31ST ST","city":"New York","state":"NY","zip":"","latitude":"40.6447249","longitude":"-73.948097","details":"Anniversaries last week of month","accessibility":true},{"address":"114 E 35TH ST","city":"New York","state":"NY","zip":"10016","latitude":"40.7473169","longitude":"-73.9800724","details":"","accessibility":true},{"address":"230 E 60TH ST","city":"New York","state":"NY","zip":"10022","latitude":"40.7615607","longitude":"-73.9649474","details":"Fri.6:30=Steps 3 & 11","accessibility":false},{"address":"244 E 58TH ST","city":"New York","state":"NY","zip":"10022","latitude":"40.6492925","longitude":"-73.9225408","details":"","accessibility":true},{"address":"619 LEXINGTON AVE","city":"New York","state":"NY","zip":"10022","latitude":"40.7588016","longitude":"-73.9704542","details":"Women's Meeting.","accessibility":true},{"address":"325 PARK AVE","city":"New York","state":"NY","zip":"10022","latitude":"40.7574552","longitude":"-73.9733937","details":"Anniv. Last Mon., T-Last Wed., Topic-Last Fri. All meetings are OPEN to Public","accessibility":false},{"address":"236 E 31ST ST","city":"New York","state":"NY","zip":"10016","latitude":"40.6448323","longitude":"-73.9481079","details":"","accessibility":false},{"address":"308 E 55TH ST","city":"New York","state":"NY","zip":"10022","latitude":"40.7576943","longitude":"-73.9657436","details":"","accessibility":false},{"address":"244 E 58TH ST","city":"New York","state":"NY","zip":"10022","latitude":"40.7600925","longitude":"-73.9653811","details":"","accessibility":true},{"address":"244 E 58TH ST","city":"New York","state":"NY","zip":"10022","latitude":"40.7600925","longitude":"-73.9653811","details":"","accessibility":true},{"address":"109 E 50TH ST","city":"New York","state":"NY","zip":"10022","latitude":"40.7569178","longitude":"-73.97309","details":"11th Step, Anniv. 3rd Wednesday","accessibility":true}]