[{"streetAddress":"122 East 37th Street","city":"New York","state":"NY","zip":"10016"},{"streetAddress":"30 East 35th Street","city":"New York","state":"NY","zip":"10016"},{"streetAddress":"350 East 56th Street","city":"New York","state":"NY","zip":"10022"},{"streetAddress":"619 Lexington Avenue","city":"New York","state":"NY","zip":"10022"},{"streetAddress":"122 East 37th Street","city":"New York","state":"NY","zip":"10016"},{"streetAddress":"28 East 35th Street","city":"New York","state":"NY","zip":"10016"},{"streetAddress":"350 East 56th Street ","city":"New York","state":"NY","zip":"10022"},{"streetAddress":"283 Lexington Avenue","city":"New York","state":"NY","zip":"10016"},{"streetAddress":"122 East 37th Street","city":"New York","state":"NY","zip":"10016"},{"streetAddress":"619 Lexington Avenue","city":"New York","state":"NY","zip":"10022"},{"streetAddress":"141 East 43rd Street","city":"New York","state":"NY","zip":"10017"},{"streetAddress":"122 E 37TH St.","city":"New York","state":"NY","zip":"10016"},{"streetAddress":"122 East 37th Street","city":"New York","state":"NY","zip":"10016"},{"streetAddress":"141 East 43rd Street","city":"New York","state":"NY","zip":"10017"},{"streetAddress":"209 Madison Avenue","city":"New York","state":"NY","zip":"10016"},{"streetAddress":"122 East 37th Street","city":"New York","state":"NY","zip":"10016"},{"streetAddress":"619 Lexington Avenue","city":"New York","state":"NY","zip":"10022"},{"streetAddress":"240 East 31st Street","city":"New York","state":"NY","zip":""},{"streetAddress":"114 East 35th Street","city":"New York","state":"NY","zip":"10016"},{"streetAddress":"230 East 60th Street (Basement) ","city":"New York","state":"NY","zip":"10022"},{"streetAddress":"244 East 58th Street","city":"New York","state":"NY","zip":"10022"},{"streetAddress":"619 Lexington Avenue","city":"New York","state":"NY","zip":"10022"},{"streetAddress":"325 Park Avenue","city":"New York","state":"NY","zip":"10022"},{"streetAddress":"236 EAST 31st STREET ","city":"New York","state":"NY","zip":"10016"},{"streetAddress":"308 East 55th Street","city":"New York","state":"NY","zip":"10022"},{"streetAddress":"244 East 58th Street","city":"New York","state":"NY","zip":"10022"},{"streetAddress":"244 East 58th Street","city":"New York","state":"NY","zip":"10022"},{"streetAddress":"109 East 50th Street","city":"New York","state":"NY","zip":"10022"}]